[{"OBJECT_NAME":"STARLINK-5010","OBJECT_ID":"2022-119AW","EPOCH":"2026-03-09T22:05:11.244192","MEAN_MOTION":15.08846291,"ECCENTRICITY":0.00015003,"INCLINATION":53.2184,"RA_OF_ASC_NODE":302.8284,"ARG_OF_PERICENTER":85.0705,"MEAN_ANOMALY":275.0458,"EPHEMERIS_TYPE":0,"CLASSIFICATION_TYPE":"U","NORAD_CAT_ID":53930,"ELEMENT_SET_NO":999,"REV_AT_EPOCH":19200,"BSTAR":5.1761978e-5,"MEAN_MOTION_DOT":5.36e-6,"MEAN_MOTION_DDOT":0},{"OBJECT_NAME":"LEMUR-2-LANGER2SPACE","OBJECT_ID":"2025-061H","EPOCH":"2026-03-09T22:29:21.653952","MEAN_MOTION":15.13463796,"ECCENTRICITY":0.00153346,"INCLINATION":97.5541,"RA_OF_ASC_NODE":45.3892,"ARG_OF_PERICENTER":237.418,"MEAN_ANOMALY":122.5571,"EPHEMERIS_TYPE":0,"CLASSIFICATION_TYPE":"U","NORAD_CAT_ID":63358,"ELEMENT_SET_NO":999,"REV_AT_EPOCH":5260,"BSTAR":0.00035148431,"MEAN_MOTION_DOT":6.238e-5,"MEAN_MOTION_DDOT":0}]
