STARLINK-5010           
1 53930U 22119AW  26068.92026902  .00000536  00000+0  51762-4 0  9995
2 53930  53.2184 302.8284 0001500  85.0705 275.0458 15.08846291192000
LEMUR-2-LANGER2SPACE    
1 63358U 25061H   26068.93705617  .00006238  00000+0  35148-3 0  9991
2 63358  97.5541  45.3892 0015335 237.4180 122.5571 15.13463796 52602
